CCSDS_OMM_VERS = 2.0
CREATION_DATE  = 
ORIGINATOR     = 

OBJECT_NAME    = STARLINK-36227
OBJECT_ID      = 2025-298W
CENTER_NAME    = EARTH
REF_FRAME      = TEME
TIME_SYSTEM    = UTC
MEAN_ELEMENT_THEORY = SGP/SGP4

EPOCH          = 2026-01-10T22:00:01.999584
MEAN_MOTION    = 15.42716045
ECCENTRICITY   = .00025672
INCLINATION    = 69.9999
RA_OF_ASC_NODE = 168.3607
ARG_OF_PERICENTER = 285.1540
MEAN_ANOMALY   = 229.5662

EPHEMERIS_TYPE = 0
CLASSIFICATION_TYPE = U
NORAD_CAT_ID   = 67095
ELEMENT_SET_NO = 999
REV_AT_EPOCH   = 560
BSTAR          = .18421892E-2
MEAN_MOTION_DOT = .81386E-3
MEAN_MOTION_DDOT = 0

CCSDS_OMM_VERS = 2.0
CREATION_DATE  = 
ORIGINATOR     = 

OBJECT_NAME    = STARLINK-36228
OBJECT_ID      = 2025-298X
CENTER_NAME    = EARTH
REF_FRAME      = TEME
TIME_SYSTEM    = UTC
MEAN_ELEMENT_THEORY = SGP/SGP4

EPOCH          = 2026-01-10T22:31:15.130848
MEAN_MOTION    = 15.52577037
ECCENTRICITY   = .00036493
INCLINATION    = 70.0000
RA_OF_ASC_NODE = 168.2071
ARG_OF_PERICENTER = 285.2999
MEAN_ANOMALY   = 74.7785

EPHEMERIS_TYPE = 0
CLASSIFICATION_TYPE = U
NORAD_CAT_ID   = 67096
ELEMENT_SET_NO = 999
REV_AT_EPOCH   = 436
BSTAR          = .10073566E-2
MEAN_MOTION_DOT = .62427E-3
MEAN_MOTION_DDOT = 0

CCSDS_OMM_VERS = 2.0
CREATION_DATE  = 
ORIGINATOR     = 

OBJECT_NAME    = STARLINK-36222
OBJECT_ID      = 2025-298Y
CENTER_NAME    = EARTH
REF_FRAME      = TEME
TIME_SYSTEM    = UTC
MEAN_ELEMENT_THEORY = SGP/SGP4

EPOCH          = 2026-01-08T21:01:49.149120
MEAN_MOTION    = 15.52490709
ECCENTRICITY   = .0002876
INCLINATION    = 70.0004
RA_OF_ASC_NODE = 173.8528
ARG_OF_PERICENTER = 292.8548
MEAN_ANOMALY   = 67.2335

EPHEMERIS_TYPE = 0
CLASSIFICATION_TYPE = U
NORAD_CAT_ID   = 67097
ELEMENT_SET_NO = 999
REV_AT_EPOCH   = 404
BSTAR          = .88585E-3
MEAN_MOTION_DOT = .54648E-3
MEAN_MOTION_DDOT = 0

CCSDS_OMM_VERS = 2.0
CREATION_DATE  = 
ORIGINATOR     = 

OBJECT_NAME    = STARLINK-36205
OBJECT_ID      = 2025-298Z
CENTER_NAME    = EARTH
REF_FRAME      = TEME
TIME_SYSTEM    = UTC
MEAN_ELEMENT_THEORY = SGP/SGP4

EPOCH          = 2026-01-10T20:32:58.428384
MEAN_MOTION    = 15.42643599
ECCENTRICITY   = .00030376
INCLINATION    = 70.0013
RA_OF_ASC_NODE = 168.7299
ARG_OF_PERICENTER = 263.9289
MEAN_ANOMALY   = 96.1546

EPHEMERIS_TYPE = 0
CLASSIFICATION_TYPE = U
NORAD_CAT_ID   = 67098
ELEMENT_SET_NO = 999
REV_AT_EPOCH   = 434
BSTAR          = -.16517792E-2
MEAN_MOTION_DOT = -.71654E-3
MEAN_MOTION_DDOT = 0

CCSDS_OMM_VERS = 2.0
CREATION_DATE  = 
ORIGINATOR     = 

OBJECT_NAME    = STARLINK-36193
OBJECT_ID      = 2025-298AA
CENTER_NAME    = EARTH
REF_FRAME      = TEME
TIME_SYSTEM    = UTC
MEAN_ELEMENT_THEORY = SGP/SGP4

EPOCH          = 2026-01-10T21:31:03.488160
MEAN_MOTION    = 15.42736394
ECCENTRICITY   = .00033158
INCLINATION    = 70.0001
RA_OF_ASC_NODE = 168.8774
ARG_OF_PERICENTER = 275.9957
MEAN_ANOMALY   = 84.0847

EPHEMERIS_TYPE = 0
CLASSIFICATION_TYPE = U
NORAD_CAT_ID   = 67099
ELEMENT_SET_NO = 999
REV_AT_EPOCH   = 434
BSTAR          = .96363496E-3
MEAN_MOTION_DOT = .42318E-3
MEAN_MOTION_DDOT = 0

CCSDS_OMM_VERS = 2.0
CREATION_DATE  = 
ORIGINATOR     = 

OBJECT_NAME    = STARLINK-36215
OBJECT_ID      = 2025-298AB
CENTER_NAME    = EARTH
REF_FRAME      = TEME
TIME_SYSTEM    = UTC
MEAN_ELEMENT_THEORY = SGP/SGP4

EPOCH          = 2026-01-10T19:23:13.395552
MEAN_MOTION    = 15.52562436
ECCENTRICITY   = .00034313
INCLINATION    = 70.0008
RA_OF_ASC_NODE = 168.5511
ARG_OF_PERICENTER = 280.8691
MEAN_ANOMALY   = 79.2110

EPHEMERIS_TYPE = 0
CLASSIFICATION_TYPE = U
NORAD_CAT_ID   = 67100
ELEMENT_SET_NO = 999
REV_AT_EPOCH   = 434
BSTAR          = .13372251E-2
MEAN_MOTION_DOT = .83095E-3
MEAN_MOTION_DDOT = 0

CCSDS_OMM_VERS = 2.0
CREATION_DATE  = 
ORIGINATOR     = 

OBJECT_NAME    = STARLINK-36200
OBJECT_ID      = 2025-298AC
CENTER_NAME    = EARTH
REF_FRAME      = TEME
TIME_SYSTEM    = UTC
MEAN_ELEMENT_THEORY = SGP/SGP4

EPOCH          = 2026-01-10T20:09:37.001376
MEAN_MOTION    = 15.42739192
ECCENTRICITY   = .00033505
INCLINATION    = 70.0012
RA_OF_ASC_NODE = 168.6705
ARG_OF_PERICENTER = 271.2629
MEAN_ANOMALY   = 88.8169

EPHEMERIS_TYPE = 0
CLASSIFICATION_TYPE = U
NORAD_CAT_ID   = 67101
ELEMENT_SET_NO = 999
REV_AT_EPOCH   = 434
BSTAR          = .66298078E-3
MEAN_MOTION_DOT = .29021E-3
MEAN_MOTION_DDOT = 0

CCSDS_OMM_VERS = 2.0
CREATION_DATE  = 
ORIGINATOR     = 

OBJECT_NAME    = STARLINK-36255
OBJECT_ID      = 2025-299A
CENTER_NAME    = EARTH
REF_FRAME      = TEME
TIME_SYSTEM    = UTC
MEAN_ELEMENT_THEORY = SGP/SGP4

EPOCH          = 2026-01-10T18:53:11.407776
MEAN_MOTION    = 15.40711462
ECCENTRICITY   = .00049642
INCLINATION    = 43.0037
RA_OF_ASC_NODE = 142.6803
ARG_OF_PERICENTER = 259.3829
MEAN_ANOMALY   = 100.6469

EPHEMERIS_TYPE = 0
CLASSIFICATION_TYPE = U
NORAD_CAT_ID   = 67102
ELEMENT_SET_NO = 999
REV_AT_EPOCH   = 418
BSTAR          = .52528191E-3
MEAN_MOTION_DOT = .21716E-3
MEAN_MOTION_DDOT = 0

CCSDS_OMM_VERS = 2.0
CREATION_DATE  = 
ORIGINATOR     = 

OBJECT_NAME    = STARLINK-36256
OBJECT_ID      = 2025-299B
CENTER_NAME    = EARTH
REF_FRAME      = TEME
TIME_SYSTEM    = UTC
MEAN_ELEMENT_THEORY = SGP/SGP4

EPOCH          = 2026-01-10T17:13:25.507776
MEAN_MOTION    = 15.40711793
ECCENTRICITY   = .00015035
INCLINATION    = 42.9994
RA_OF_ASC_NODE = 143.0168
ARG_OF_PERICENTER = 267.7628
MEAN_ANOMALY   = 92.3057

EPHEMERIS_TYPE = 0
CLASSIFICATION_TYPE = U
NORAD_CAT_ID   = 67103
ELEMENT_SET_NO = 999
REV_AT_EPOCH   = 417
BSTAR          = .112849E-2
MEAN_MOTION_DOT = .47147E-3
MEAN_MOTION_DDOT = 0

CCSDS_OMM_VERS = 2.0
CREATION_DATE  = 
ORIGINATOR     = 

OBJECT_NAME    = STARLINK-36258
OBJECT_ID      = 2025-299C
CENTER_NAME    = EARTH
REF_FRAME      = TEME
TIME_SYSTEM    = UTC
MEAN_ELEMENT_THEORY = SGP/SGP4

EPOCH          = 2026-01-09T15:32:47.672736
MEAN_MOTION    = 15.50660934
ECCENTRICITY   = .00009407
INCLINATION    = 43.0023
RA_OF_ASC_NODE = 148.7406
ARG_OF_PERICENTER = 225.2528
MEAN_ANOMALY   = 134.8256

EPHEMERIS_TYPE = 0
CLASSIFICATION_TYPE = U
NORAD_CAT_ID   = 67104
ELEMENT_SET_NO = 999
REV_AT_EPOCH   = 401
BSTAR          = .11995145E-2
MEAN_MOTION_DOT = .70874E-3
MEAN_MOTION_DDOT = 0

CCSDS_OMM_VERS = 2.0
CREATION_DATE  = 
ORIGINATOR     = 

OBJECT_NAME    = STARLINK-36261
OBJECT_ID      = 2025-299D
CENTER_NAME    = EARTH
REF_FRAME      = TEME
TIME_SYSTEM    = UTC
MEAN_ELEMENT_THEORY = SGP/SGP4

EPOCH          = 2026-01-10T18:50:00.044736
MEAN_MOTION    = 15.40716285
ECCENTRICITY   = .00018961
INCLINATION    = 42.9995
RA_OF_ASC_NODE = 142.6618
ARG_OF_PERICENTER = 277.2783
MEAN_ANOMALY   = 82.7858

EPHEMERIS_TYPE = 0
CLASSIFICATION_TYPE = U
NORAD_CAT_ID   = 67105
ELEMENT_SET_NO = 999
REV_AT_EPOCH   = 418
BSTAR          = .93772633E-3
MEAN_MOTION_DOT = .3909E-3
MEAN_MOTION_DDOT = 0

CCSDS_OMM_VERS = 2.0
CREATION_DATE  = 
ORIGINATOR     = 

OBJECT_NAME    = STARLINK-36259
OBJECT_ID      = 2025-299E
CENTER_NAME    = EARTH
REF_FRAME      = TEME
TIME_SYSTEM    = UTC
MEAN_ELEMENT_THEORY = SGP/SGP4

EPOCH          = 2026-01-10T22:00:01.999584
MEAN_MOTION    = 15.40671244
ECCENTRICITY   = .00018167
INCLINATION    = 42.9996
RA_OF_ASC_NODE = 141.6601
ARG_OF_PERICENTER = 269.7548
MEAN_ANOMALY   = 202.6766

EPHEMERIS_TYPE = 0
CLASSIFICATION_TYPE = U
NORAD_CAT_ID   = 67106
ELEMENT_SET_NO = 999
REV_AT_EPOCH   = 549
BSTAR          = .12741521E-2
MEAN_MOTION_DOT = .53243E-3
MEAN_MOTION_DDOT = 0

