STARLINK-36227          
1 67095U 25298W   26010.91668981  .00081386  00000+0  18422-2 0  9994
2 67095  69.9999 168.3607 0002567 285.1540 229.5662 15.42716045  5604
STARLINK-36228          
1 67096U 25298X   26010.93836957  .00062427  00000+0  10074-2 0  9997
2 67096  70.0000 168.2071 0003649 285.2999  74.7785 15.52577037  4361
STARLINK-36222          
1 67097U 25298Y   26008.87626330  .00054648  00000+0  88585-3 0  9999
2 67097  70.0004 173.8528 0002876 292.8548  67.2335 15.52490709  4043
STARLINK-36205          
1 67098U 25298Z   26010.85623181 -.00071654  00000+0 -16518-2 0  9996
2 67098  70.0013 168.7299 0003037 263.9289  96.1546 15.42643599  4347
STARLINK-36193          
1 67099U 25298AA  26010.89656815  .00042318  00000+0  96363-3 0  9991
2 67099  70.0001 168.8774 0003315 275.9957  84.0847 15.42736394  4344
STARLINK-36215          
1 67100U 25298AB  26010.80779393  .00083095  00000+0  13372-2 0  9997
2 67100  70.0008 168.5511 0003431 280.8691  79.2110 15.52562436  4343
STARLINK-36200          
1 67101U 25298AC  26010.84001159  .00029021  00000+0  66298-3 0  9995
2 67101  70.0012 168.6705 0003350 271.2629  88.8169 15.42739192  4344
STARLINK-36255          
1 67102U 25299A   26010.78693759  .00021716  00000+0  52528-3 0  9997
2 67102  43.0037 142.6803 0004964 259.3829 100.6469 15.40711462  4180
STARLINK-36256          
1 67103U 25299B   26010.71765634  .00047147  00000+0  11285-2 0  9993
2 67103  42.9994 143.0168 0001503 267.7628  92.3057 15.40711793  4172
STARLINK-36258          
1 67104U 25299C   26009.64777399  .00070874  00000+0  11995-2 0  9996
2 67104  43.0023 148.7406 0000940 225.2528 134.8256 15.50660934  4014
STARLINK-36261          
1 67105U 25299D   26010.78472274  .00039090  00000+0  93773-3 0  9998
2 67105  42.9995 142.6618 0001896 277.2783  82.7858 15.40716285  4187
STARLINK-36259          
1 67106U 25299E   26010.91668981  .00053243  00000+0  12742-2 0  9998
2 67106  42.9996 141.6601 0001816 269.7548 202.6766 15.40671244  5498
